start=new Date('2022-03-30T00:00:00.000Z').valueOf();
sats=[{"REF_FRAME":"TEME","REV_AT_EPOCH":"244","PERIAPSIS":"348.925","OBJECT_ID":"2022-029AK","ARG_OF_PERICENTER":"73.6628","ELEMENT_SET_NO":"999","TLE_LINE2":"2 52121  53.2164  90.9971 0001293  73.6628 139.4330 15.73187894  2442","SEMIMAJOR_AXIS":"6727.930","MEAN_MOTION_DOT":"0.00030224","MEAN_MOTION_DDOT":"0.0000000000000","BSTAR":"0.00021910000000","EPOCH":"2022-03-29T22:00:00.999936","TLE_LINE1":"1 52121U 22029AK  22088.91667824  .00030224  00000-0  21910-3 0  9996","MEAN_ELEMENT_THEORY":"SGP4","FILE":"3379484","MEAN_ANOMALY":"139.4330","OBJECT_NAME":"STARLINK-3678","OBJECT_TYPE":"PAYLOAD","EPHEMERIS_TYPE":"0","COUNTRY_CODE":"US","APOAPSIS":"350.665","NORAD_CAT_ID":"52121","TIME_SYSTEM":"UTC","SITE":"AFETR","RCS_SIZE":"LARGE","CENTER_NAME":"EARTH","CLASSIFICATION_TYPE":"U","RA_OF_ASC_NODE":"90.9971","GP_ID":"200023396","LAUNCH_DATE":"2022-03-19","INCLINATION":"53.2164","ECCENTRICITY":"0.00012930","DECAY_DATE":null,"MEAN_MOTION":"15.73187894","PERIOD":"91.534"},{"ECCENTRICITY":"0.00012030","INCLINATION":"53.2165","DECAY_DATE":null,"LAUNCH_DATE":"2022-03-19","MEAN_MOTION":"15.73258462","PERIOD":"91.530","CLASSIFICATION_TYPE":"U","CENTER_NAME":"EARTH","RCS_SIZE":"LARGE","SITE":"AFETR","RA_OF_ASC_NODE":"91.0013","GP_ID":"200023082","COUNTRY_CODE":"US","EPHEMERIS_TYPE":"0","APOAPSIS":"350.403","NORAD_CAT_ID":"52122","TIME_SYSTEM":"UTC","MEAN_ANOMALY":"145.8599","MEAN_ELEMENT_THEORY":"SGP4","FILE":"3379484","OBJECT_TYPE":"PAYLOAD","OBJECT_NAME":"STARLINK-3726","MEAN_MOTION_DDOT":"0.0000000000000","BSTAR":"-0.00023369000000","TLE_LINE1":"1 52122U 22029AL  22088.91667824 -.00033369  00000-0 -23369-3 0  9992","EPOCH":"2022-03-29T22:00:00.999936","MEAN_MOTION_DOT":"-0.00033369","ELEMENT_SET_NO":"999","TLE_LINE2":"2 52122  53.2165  91.0013 0001203  65.4048 145.8599 15.73258462  2470","ARG_OF_PERICENTER":"65.4048","SEMIMAJOR_AXIS":"6727.729","PERIAPSIS":"348.784","REF_FRAME":"TEME","REV_AT_EPOCH":"247","OBJECT_ID":"2022-029AL"},{"MEAN_ELEMENT_THEORY":"SGP4","FILE":"3379484","MEAN_ANOMALY":"149.0951","OBJECT_NAME":"STARLINK-3725","OBJECT_TYPE":"PAYLOAD","EPHEMERIS_TYPE":"0","COUNTRY_CODE":"US","NORAD_CAT_ID":"52123","APOAPSIS":"350.587","TIME_SYSTEM":"UTC","RCS_SIZE":"LARGE","SITE":"AFETR","CENTER_NAME":"EARTH","CLASSIFICATION_TYPE":"U","RA_OF_ASC_NODE":"90.9947","GP_ID":"200022969","LAUNCH_DATE":"2022-03-19","ECCENTRICITY":"0.00012720","INCLINATION":"53.2164","DECAY_DATE":null,"MEAN_MOTION":"15.73210215","PERIOD":"91.533","REF_FRAME":"TEME","REV_AT_EPOCH":"247","PERIAPSIS":"348.875","OBJECT_ID":"2022-029AM","ARG_OF_PERICENTER":"65.1339","ELEMENT_SET_NO":"999","TLE_LINE2":"2 52123  53.2164  90.9947 0001272  65.1339 149.0951 15.73210215  2472","SEMIMAJOR_AXIS":"6727.866","MEAN_MOTION_DOT":"-0.00003369","BSTAR":"-0.00001958500000","MEAN_MOTION_DDOT":"0.0000000000000","EPOCH":"2022-03-29T22:00:00.999936","TLE_LINE1":"1 52123U 22029AM  22088.91667824 -.00003369  00000-0 -19585-4 0  9996"},{"PERIOD":"91.537","MEAN_MOTION":"15.73127585","DECAY_DATE":null,"INCLINATION":"53.2165","ECCENTRICITY":"0.00012380","LAUNCH_DATE":"2022-03-19","GP_ID":"200023187","RA_OF_ASC_NODE":"90.9987","CENTER_NAME":"EARTH","CLASSIFICATION_TYPE":"U","SITE":"AFETR","RCS_SIZE":"LARGE","TIME_SYSTEM":"UTC","NORAD_CAT_ID":"52124","APOAPSIS":"350.800","COUNTRY_CODE":"US","EPHEMERIS_TYPE":"0","OBJECT_TYPE":"PAYLOAD","OBJECT_NAME":"STARLINK-3684","MEAN_ANOMALY":"144.4039","FILE":"3379484","MEAN_ELEMENT_THEORY":"SGP4","TLE_LINE1":"1 52124U 22029AN  22088.91667824  .00091741  00000-0  65298-3 0  9997","EPOCH":"2022-03-29T22:00:00.999936","BSTAR":"0.00065298000000","MEAN_MOTION_DDOT":"0.0000000000000","MEAN_MOTION_DOT":"0.00091741","SEMIMAJOR_AXIS":"6728.102","TLE_LINE2":"2 52124  53.2165  90.9987 0001238  68.1110 144.4039 15.73127585  2439","ELEMENT_SET_NO":"999","ARG_OF_PERICENTER":"68.1110","OBJECT_ID":"2022-029AN","PERIAPSIS":"349.134","REV_AT_EPOCH":"243","REF_FRAME":"TEME"},{"TLE_LINE2":"2 52125  53.2163  90.9935 0001341  67.5543 147.2382 15.73164527  2472","ELEMENT_SET_NO":"999","ARG_OF_PERICENTER":"67.5543","SEMIMAJOR_AXIS":"6727.996","PERIAPSIS":"348.959","REV_AT_EPOCH":"247","REF_FRAME":"TEME","OBJECT_ID":"2022-029AP","MEAN_MOTION_DDOT":"0.0000000000000","BSTAR":"0.00001739400000","TLE_LINE1":"1 52125U 22029AP  22088.91667824  .00001818  00000-0  17394-4 0  9999","EPOCH":"2022-03-29T22:00:00.999936","MEAN_MOTION_DOT":"0.00001818","COUNTRY_CODE":"US","EPHEMERIS_TYPE":"0","TIME_SYSTEM":"UTC","NORAD_CAT_ID":"52125","APOAPSIS":"350.764","MEAN_ANOMALY":"147.2382","FILE":"3379484","MEAN_ELEMENT_THEORY":"SGP4","OBJECT_TYPE":"PAYLOAD","OBJECT_NAME":"STARLINK-3727","DECAY_DATE":null,"ECCENTRICITY":"0.00013410","INCLINATION":"53.2163","LAUNCH_DATE":"2022-03-19","PERIOD":"91.535","MEAN_MOTION":"15.73164527","CLASSIFICATION_TYPE":"U","CENTER_NAME":"EARTH","SITE":"AFETR","RCS_SIZE":"LARGE","GP_ID":"200023491","RA_OF_ASC_NODE":"90.9935"},{"FILE":"3379484","MEAN_ELEMENT_THEORY":"SGP4","MEAN_ANOMALY":"143.2384","OBJECT_NAME":"STARLINK-3732","OBJECT_TYPE":"PAYLOAD","EPHEMERIS_TYPE":"0","COUNTRY_CODE":"US","TIME_SYSTEM":"UTC","APOAPSIS":"350.590","NORAD_CAT_ID":"52126","SITE":"AFETR","RCS_SIZE":"LARGE","CENTER_NAME":"EARTH","CLASSIFICATION_TYPE":"U","GP_ID":"200022758","RA_OF_ASC_NODE":"90.9964","LAUNCH_DATE":"2022-03-19","DECAY_DATE":null,"ECCENTRICITY":"0.00013060","INCLINATION":"53.2165","PERIOD":"91.532","MEAN_MOTION":"15.73217053","REV_AT_EPOCH":"244","REF_FRAME":"TEME","PERIAPSIS":"348.833","OBJECT_ID":"2022-029AQ","ARG_OF_PERICENTER":"70.3709","TLE_LINE2":"2 52126  53.2165  90.9964 0001306  70.3709 143.2384 15.73217053  2442","ELEMENT_SET_NO":"999","SEMIMAJOR_AXIS":"6727.847","MEAN_MOTION_DOT":"-0.00004212","BSTAR":"-0.00002558600000","MEAN_MOTION_DDOT":"0.0000000000000","EPOCH":"2022-03-29T22:00:00.999936","TLE_LINE1":"1 52126U 22029AQ  22088.91667824 -.00004212  00000-0 -25586-4 0  9995"},{"PERIOD":"91.531","MEAN_MOTION":"15.73232034","LAUNCH_DATE":"2022-03-19","DECAY_DATE":null,"ECCENTRICITY":"0.00012280","INCLINATION":"53.2164","GP_ID":"200023292","RA_OF_ASC_NODE":"90.9908","SITE":"AFETR","RCS_SIZE":"LARGE","CENTER_NAME":"EARTH","CLASSIFICATION_TYPE":"U","TIME_SYSTEM":"UTC","NORAD_CAT_ID":"52127","APOAPSIS":"350.495","EPHEMERIS_TYPE":"0","COUNTRY_CODE":"US","OBJECT_NAME":"STARLINK-3715","OBJECT_TYPE":"PAYLOAD","FILE":"3379484","MEAN_ELEMENT_THEORY":"SGP4","MEAN_ANOMALY":"152.1893","EPOCH":"2022-03-29T22:00:00.999936","TLE_LINE1":"1 52127U 22029AR  22088.91667824  .00004572  00000-0  36928-4 0  9995","BSTAR":"0.00003692800000","MEAN_MOTION_DDOT":"0.0000000000000","MEAN_MOTION_DOT":"0.00004572","SEMIMAJOR_AXIS":"6727.804","ARG_OF_PERICENTER":"63.7278","TLE_LINE2":"2 52127  53.2164  90.9908 0001228  63.7278 152.1893 15.73232034  2440","ELEMENT_SET_NO":"999","OBJECT_ID":"2022-029AR","REV_AT_EPOCH":"244","REF_FRAME":"TEME","PERIAPSIS":"348.843"},{"MEAN_ANOMALY":"229.9773","MEAN_ELEMENT_THEORY":"SGP4","FILE":"3379484","OBJECT_TYPE":"PAYLOAD","OBJECT_NAME":"STARLINK-3719","COUNTRY_CODE":"US","EPHEMERIS_TYPE":"0","NORAD_CAT_ID":"52128","APOAPSIS":"304.721","TIME_SYSTEM":"UTC","CENTER_NAME":"EARTH","CLASSIFICATION_TYPE":"U","SITE":"AFETR","RCS_SIZE":"LARGE","RA_OF_ASC_NODE":"90.3085","GP_ID":"200022864","ECCENTRICITY":"0.00084630","INCLINATION":"53.2150","DECAY_DATE":null,"LAUNCH_DATE":"2022-03-19","MEAN_MOTION":"15.91148463","PERIOD":"90.501","PERIAPSIS":"293.419","REF_FRAME":"TEME","REV_AT_EPOCH":"237","OBJECT_ID":"2022-029AS","ELEMENT_SET_NO":"999","TLE_LINE2":"2 52128  53.2150  90.3085 0008463 318.2097 229.9773 15.91148463  2375","ARG_OF_PERICENTER":"318.2097","SEMIMAJOR_AXIS":"6677.205","MEAN_MOTION_DOT":"0.00255618","MEAN_MOTION_DDOT":"0.0000353120000","BSTAR":"0.00079375000000","TLE_LINE1":"1 52128U 22029AS  22088.91667824  .00255618  35312-4  79375-3 0  9995","EPOCH":"2022-03-29T22:00:00.999936"},{"SEMIMAJOR_AXIS":"6727.720","TLE_LINE2":"2 52129  53.2163  90.9888 0001200  60.8246 156.2218 15.73261508  2478","ELEMENT_SET_NO":"999","ARG_OF_PERICENTER":"60.8246","OBJECT_ID":"2022-029AT","PERIAPSIS":"348.777","REV_AT_EPOCH":"247","REF_FRAME":"TEME","TLE_LINE1":"1 52129U 22029AT  22088.91667824 -.00032034  00000-0 -22410-3 0  9993","EPOCH":"2022-03-29T22:00:00.999936","BSTAR":"-0.00022410000000","MEAN_MOTION_DDOT":"0.0000000000000","MEAN_MOTION_DOT":"-0.00032034","TIME_SYSTEM":"UTC","APOAPSIS":"350.392","NORAD_CAT_ID":"52129","COUNTRY_CODE":"US","EPHEMERIS_TYPE":"0","OBJECT_TYPE":"PAYLOAD","OBJECT_NAME":"STARLINK-3661","MEAN_ANOMALY":"156.2218","FILE":"3379484","MEAN_ELEMENT_THEORY":"SGP4","PERIOD":"91.530","MEAN_MOTION":"15.73261508","DECAY_DATE":null,"ECCENTRICITY":"0.00012000","INCLINATION":"53.2163","LAUNCH_DATE":"2022-03-19","GP_ID":"200023397","RA_OF_ASC_NODE":"90.9888","CLASSIFICATION_TYPE":"U","CENTER_NAME":"EARTH","RCS_SIZE":"LARGE","SITE":"AFETR"},{"ARG_OF_PERICENTER":"322.7680","ELEMENT_SET_NO":"999","TLE_LINE2":"2 52130  53.2152  90.3758 0008991 322.7680 192.9960 15.89948068  2431","SEMIMAJOR_AXIS":"6680.565","REF_FRAME":"TEME","REV_AT_EPOCH":"243","PERIAPSIS":"296.424","OBJECT_ID":"2022-029AU","BSTAR":"0.00074767000000","MEAN_MOTION_DDOT":"0.0000296980000","EPOCH":"2022-03-29T22:00:00.999936","TLE_LINE1":"1 52130U 22029AU  22088.91667824  .00226147  29698-4  74767-3 0  9993","MEAN_MOTION_DOT":"0.00226147","EPHEMERIS_TYPE":"0","COUNTRY_CODE":"US","NORAD_CAT_ID":"52130","APOAPSIS":"308.437","TIME_SYSTEM":"UTC","MEAN_ELEMENT_THEORY":"SGP4","FILE":"3379484","MEAN_ANOMALY":"192.9960","OBJECT_NAME":"STARLINK-3710","OBJECT_TYPE":"PAYLOAD","LAUNCH_DATE":"2022-03-19","INCLINATION":"53.2152","ECCENTRICITY":"0.00089910","DECAY_DATE":null,"MEAN_MOTION":"15.89948068","PERIOD":"90.569","SITE":"AFETR","RCS_SIZE":"LARGE","CENTER_NAME":"EARTH","CLASSIFICATION_TYPE":"U","RA_OF_ASC_NODE":"90.3758","GP_ID":"200023083"}];
